ONEWEB-0240             
1 48785U 21045U   23310.42327824  .00000015  00000+0  62877-5 0  9995
2 48785  87.8967  89.0543 0001031  96.3812 263.7436 13.15549621120126
ONEWEB-0246             
1 48786U 21045V   23309.88613085  .00000037  00000+0  63688-4 0  9995
2 48786  87.8967  89.1634 0001529  83.8506 276.2798 13.15546483118807
ONEWEB-0210             
1 48787U 21045W   23310.08896051  .00000829  00000+0  21679-2 0  9997
2 48787  87.8960  89.1306 0001926  67.6614 292.4721 13.15551493120006
ONEWEB-0214             
1 48788U 21045X   23310.09846435 -.00000128  00000+0 -37438-3 0  9995
2 48788  87.8968  89.1172 0001878  70.7305 289.4029 13.15544184119963
ONEWEB-0221             
1 48789U 21045Y   23309.95267643  .00000045  00000+0  84184-4 0  9994
2 48789  87.8969  89.1577 0001265  90.6204 269.5071 13.15546522120059
ONEWEB-0213             
1 48790U 21045Z   23310.39793705  .00000102  00000+0  23639-3 0  9990
2 48790  87.8968  89.0869 0001242  84.2944 275.8328 13.15551627120167
ONEWEB-0212             
1 48791U 21045AA  23310.45655210  .00000241  00000+0  60615-3 0  9995
2 48791  87.8970  89.0569 0001613  99.8688 260.2624 13.15553795120173
ONEWEB-0227             
1 48792U 21045AB  23310.14599233  .00000129  00000+0  30737-3 0  9991
2 48792  87.8968  89.1336 0001395  96.6131 263.5158 13.15551465120078
